STARLINK-3880           
1 52334U 22045D   26200.66030614  .00000044  00000+0  20871-4 0  9995
2 52334  53.1614 336.3960 0001306  90.2748 269.8393 15.08835212235554
STARLINK-3814           
1 52335U 22045E   26200.65662760  .00000150  00000+0  27539-4 0  9994
2 52335  53.1610 336.4123 0001330  91.9001 268.2142 15.08832651235560
STARLINK-3823           
1 52336U 22045F   26198.42811997  .00000073  00000+0  13534-4 0  9998
2 52336  53.1640 341.8429 0000961  96.4278 263.6834 15.33551174235291
STARLINK-3797           
1 52337U 22045G   26200.40270649  .00000123  00000+0  25821-4 0  9992
2 52337  53.1601 337.5538 0001139  86.5970 273.5152 15.08832440235528
STARLINK-3792           
1 52339U 22045J   26200.41002562  .00000598  00000+0  55665-4 0  9997
2 52339  53.1617 337.1640 0001403  84.3306 275.7846 15.08833525235530
STARLINK-3818           
1 52340U 22045K   26200.64015359  .00001157  00000+0  44049-4 0  9998
2 52340  53.1608 323.3418 0000883  75.8163 284.2938 15.35400596235736
STARLINK-3843           
1 52341U 22045L   26200.64190288 -.00000090  00000+0  12421-4 0  9999
2 52341  53.1606 336.4303 0001226  93.3074 266.8058 15.08835705235565
STARLINK-3850           
1 52342U 22045M   26200.60973872  .00003295  00000+0  22513-3 0  9995
2 52342  53.1617 326.7398 0001272  96.0220 264.0917 15.08822866235690
STARLINK-3849           
1 52343U 22045N   26199.81758818 -.00000022  00000+0  16683-4 0  9995
2 52343  53.1598 340.1836 0001104  88.9052 271.2066 15.08830750235442
STARLINK-3851           
1 52344U 22045P   26200.33371794 -.00000021  00000+0  16745-4 0  9998
2 52344  53.1613 327.9303 0001017  88.0575 272.0533 15.08831336235659
STARLINK-3852           
1 52345U 22045Q   26200.58335648  .00008753  00000+0  37937-3 0  9998
2 52345  53.1588 326.4623 0000081 179.6508 181.6930 15.23146326  5851
STARLINK-3812           
1 52346U 22045R   26200.58335648  .00008666  00000+0  39508-3 0  9998
2 52346  53.1608 326.4174 0002396  65.2518  59.6851 15.21428192  5799
STARLINK-3826           
1 52347U 22045S   26200.31531152  .00000382  00000+0  22956-4 0  9995
2 52347  53.1621 324.9111 0001153  81.1194 278.9939 15.33551709235697
STARLINK-3829           
1 52348U 22045T   26200.58335648  .00016230  00000+0  63694-3 0  9999
2 52348  53.1597 324.8005 0001510  55.4071 223.3473 15.25887826  5747
STARLINK-3819           
1 52349U 22045U   26200.58335648  .00031199  00000+0  94720-3 0  9995
2 52349  53.1607 324.0680 0000985  91.4262 142.1317 15.33843111  5336
STARLINK-3754           
1 52350U 22045V   26200.35308855  .00000381  00000+0  21827-4 0  9990
2 52350  53.1603 324.6751 0000849  75.0760 285.0337 15.35400516235704
STARLINK-3838           
1 52352U 22045X   26200.63546484 -.00000147  00000+0  88526-5 0  9996
2 52352  53.1607 326.5070 0001204  89.1451 270.9678 15.08834844235700
STARLINK-3807           
1 52353U 22045Y   26200.61449103  .00000384  00000+0  23010-4 0  9993
2 52353  53.1605 323.5023 0001315  88.5447 271.5706 15.33552504235746
STARLINK-3877           
1 52355U 22045AA  26200.63914665 -.00000152  00000+0  85181-5 0  9999
2 52355  53.1601 326.4904 0001332  90.5843 269.5301 15.08832125235702
STARLINK-3801           
1 52356U 22045AB  26199.73974954 -.00000008  00000+0  10897-4 0  9996
2 52356  53.1607 327.4775 0001121  66.1020 294.0100 15.34384943235617
STARLINK-3821           
1 52357U 22045AC  26200.35067527  .00000381  00000+0  21840-4 0  9990
2 52357  53.1616 324.8173 0001325  63.5846 296.5293 15.35401335235700
STARLINK-3837           
1 52358U 22045AD  26200.61338865  .00000290  00000+0  36326-4 0  9990
2 52358  53.1623 326.6081 0000718  93.6849 266.4225 15.08832817235703
STARLINK-3853           
1 52359U 22045AE  26200.58335648  .00012338  00000+0  54266-3 0  9991
2 52359  53.1588 326.3766 0000776 164.3565 141.9516 15.22264436  5792
STARLINK-3728           
1 52361U 22045AG  26200.58335648  .00021505  00000+0  67481-3 0  9993
2 52361  53.1595 323.9741 0001511  93.1597  49.1336 15.33002172  5845
STARLINK-3848           
1 52362U 22045AH  26200.45706362  .00000192  00000+0  17931-4 0  9990
2 52362  53.1602 312.9599 0001014  86.6114 273.5004 15.31703775235872
STARLINK-3830           
1 52363U 22045AJ  26200.58335648 -.00019398  00000+0 -54662-3 0  9991
2 52363  53.1587 324.2509 0001234  85.6782 293.0182 15.35398658  5790
STARLINK-3820           
1 52364U 22045AK  26200.58853707 -.00000410  00000+0 -76619-5 0  9996
2 52364  53.1599 316.6310 0001083  91.9792 268.1324 15.08834034235836
STARLINK-3874           
1 52365U 22045AL  26200.61063045 -.00000126  00000+0  10182-4 0  9994
2 52365  53.1618 316.6186 0001074  83.1004 277.0109 15.08832794235830
STARLINK-3808           
1 52366U 22045AM  26200.32726794  .00000068  00000+0  22358-4 0  9992
2 52366  53.1599 317.8927 0001157  90.0058 270.1066 15.08834388235795
STARLINK-3817           
1 52367U 22045AN  26200.59958613  .00000475  00000+0  47937-4 0  9991
2 52367  53.1610 316.6687 0001425  84.5374 275.5780 15.08835454235839
