OBJECT_NAME,OBJECT_ID,EPOCH,MEAN_MOTION,ECCENTRICITY,INCLINATION,RA_OF_ASC_NODE,ARG_OF_PERICENTER,MEAN_ANOMALY,EPHEMERIS_TYPE,CLASSIFICATION_TYPE,NORAD_CAT_ID,ELEMENT_SET_NO,REV_AT_EPOCH,BSTAR,MEAN_MOTION_DOT,MEAN_MOTION_DDOT
STARLINK-3880,2022-045D,2026-07-19T15:50:50.450496,15.08835212,.00013065,53.1614,336.3960,90.2748,269.8393,0,U,52334,999,23555,.208713E-4,.44E-6,0
STARLINK-3814,2022-045E,2026-07-19T15:45:32.624640,15.08832651,.000133,53.1610,336.4123,91.9001,268.2142,0,U,52335,999,23556,.27539098E-4,.15E-5,0
STARLINK-3823,2022-045F,2026-07-17T10:16:29.565408,15.33551174,.0000961,53.1640,341.8429,96.4278,263.6834,0,U,52336,999,23529,.13534E-4,.73E-6,0
STARLINK-3797,2022-045G,2026-07-19T09:39:53.840736,15.08832440,.00011393,53.1601,337.5538,86.5970,273.5152,0,U,52337,999,23552,.25820534E-4,.123E-5,0
STARLINK-3792,2022-045J,2026-07-19T09:50:26.213568,15.08833525,.00014035,53.1617,337.1640,84.3306,275.7846,0,U,52339,999,23553,.55665434E-4,.598E-5,0
STARLINK-3818,2022-045K,2026-07-19T15:21:49.270176,15.35400596,.00008839,53.1608,323.3418,75.8163,284.2938,0,U,52340,999,23573,.44049154E-4,.1157E-4,0
STARLINK-3843,2022-045L,2026-07-19T15:24:20.408832,15.08835705,.00012262,53.1606,336.4303,93.3074,266.8058,0,U,52341,999,23556,.12421343E-4,-.9E-6,0
STARLINK-3850,2022-045M,2026-07-19T14:38:01.425408,15.08822866,.00012727,53.1617,326.7398,96.0220,264.0917,0,U,52342,999,23569,.22513371E-3,.3295E-4,0
STARLINK-3849,2022-045N,2026-07-18T19:37:19.618752,15.08830750,.00011047,53.1598,340.1836,88.9052,271.2066,0,U,52343,999,23544,.16682858E-4,-.22E-6,0
STARLINK-3851,2022-045P,2026-07-19T08:00:33.230016,15.08831336,.00010173,53.1613,327.9303,88.0575,272.0533,0,U,52344,999,23565,.16744624E-4,-.21E-6,0
STARLINK-3852,2022-045Q,2026-07-19T14:00:01.999872,15.23146326,.00000812,53.1588,326.4623,179.6508,181.6930,0,U,52345,999,585,.37936629E-3,.8753E-4,0
STARLINK-3812,2022-045R,2026-07-19T14:00:01.999872,15.21428192,.00023962,53.1608,326.4174,65.2518,59.6851,0,U,52346,999,579,.39507564E-3,.8666E-4,0
STARLINK-3826,2022-045S,2026-07-19T07:34:02.915328,15.33551709,.0001153,53.1621,324.9111,81.1194,278.9939,0,U,52347,999,23569,.22956498E-4,.382E-5,0
STARLINK-3829,2022-045T,2026-07-19T14:00:01.999872,15.25887826,.00015109,53.1597,324.8005,55.4071,223.3473,0,U,52348,999,574,.63693866E-3,.1623E-3,0
STARLINK-3819,2022-045U,2026-07-19T14:00:01.999872,15.33843111,.00009855,53.1607,324.0680,91.4262,142.1317,0,U,52349,999,533,.94720155E-3,.31199E-3,0
STARLINK-3754,2022-045V,2026-07-19T08:28:26.850720,15.35400516,.00008496,53.1603,324.6751,75.0760,285.0337,0,U,52350,999,23570,.21826861E-4,.381E-5,0
STARLINK-3838,2022-045X,2026-07-19T15:15:04.162176,15.08834844,.00012045,53.1607,326.5070,89.1451,270.9678,0,U,52352,999,23570,.8852576E-5,-.147E-5,0
STARLINK-3807,2022-045Y,2026-07-19T14:44:52.024992,15.33552504,.00013151,53.1605,323.5023,88.5447,271.5706,0,U,52353,999,23574,.23010167E-4,.384E-5,0
STARLINK-3877,2022-045AA,2026-07-19T15:20:22.270560,15.08832125,.00013328,53.1601,326.4904,90.5843,269.5301,0,U,52355,999,23570,.8518142E-5,-.152E-5,0
STARLINK-3801,2022-045AB,2026-07-18T17:45:14.360256,15.34384943,.00011213,53.1607,327.4775,66.1020,294.0100,0,U,52356,999,23561,.10896804E-4,-.8E-7,0
STARLINK-3821,2022-045AC,2026-07-19T08:24:58.343328,15.35401335,.00013255,53.1616,324.8173,63.5846,296.5293,0,U,52357,999,23570,.21839541E-4,.381E-5,0
STARLINK-3837,2022-045AD,2026-07-19T14:43:16.779360,15.08832817,.00007186,53.1623,326.6081,93.6849,266.4225,0,U,52358,999,23570,.36325917E-4,.29E-5,0
STARLINK-3853,2022-045AE,2026-07-19T14:00:01.999872,15.22264436,.00007761,53.1588,326.3766,164.3565,141.9516,0,U,52359,999,579,.54266484E-3,.12338E-3,0
STARLINK-3728,2022-045AG,2026-07-19T14:00:01.999872,15.33002172,.00015119,53.1595,323.9741,93.1597,49.1336,0,U,52361,999,584,.67480754E-3,.21505E-3,0
STARLINK-3848,2022-045AH,2026-07-19T10:58:10.296768,15.31703775,.00010143,53.1602,312.9599,86.6114,273.5004,0,U,52362,999,23587,.17930978E-4,.192E-5,0
STARLINK-3830,2022-045AJ,2026-07-19T14:00:01.999872,15.35398658,.0001234,53.1587,324.2509,85.6782,293.0182,0,U,52363,999,579,-.54662327E-3,-.19398E-3,0
STARLINK-3820,2022-045AK,2026-07-19T14:07:29.602848,15.08834034,.00010834,53.1599,316.6310,91.9792,268.1324,0,U,52364,999,23583,-.7661933E-5,-.41E-5,0
STARLINK-3874,2022-045AL,2026-07-19T14:39:18.470880,15.08832794,.00010741,53.1618,316.6186,83.1004,277.0109,0,U,52365,999,23583,.10181781E-4,-.126E-5,0
STARLINK-3808,2022-045AM,2026-07-19T07:51:15.950016,15.08834388,.0001157,53.1599,317.8927,90.0058,270.1066,0,U,52366,999,23579,.22358175E-4,.68E-6,0
STARLINK-3817,2022-045AN,2026-07-19T14:23:24.241632,15.08835454,.00014259,53.1610,316.6687,84.5374,275.5780,0,U,52367,999,23583,.47937435E-4,.475E-5,0
